O3B MPOWER F1           
1 54755U 22174A   23230.05637299 -.00000023  00000+0  00000+0 0  9997
2 54755   0.0421  12.0733 0004068 206.2789  45.9142  5.00111874 13605
